#dP2024  6  8  6  0  0.00000000      96 __u+U IGS20 EXT  IAC
## 2317 540000.00000000   900.00000000 60469 0.2500000000000
+   54   G02G03G04G05G06G07G08G09G10G11G12G13G14G15G16G17G18
+        G19G20G21G22G23G24G25G26G27G28G29G30G31G32R01R02R03
+        R04R05R07R08R09R11R12R13R14R15R16R17R18R19R20R21R22
+        R24R25R26  0  0  0  0  0  0  0  0  0  0  0  0  0  0
+          0  0  0  0  0  0  0  0  0  0  0  0  0  0  0  0  0
++         8 10  8  9  7  9  8  8  9  9  9  9  9  8  8  9 10
++         8  7  9  8 11  9  9  8  8  9  8  8  9  9  8  9  8
++         9  9  7  8  8  8 10  8  8  8  7  9 10  9  9  8  8
++         9  9  9  0  0  0  0  0  0  0  0  0  0  0  0  0  0
++         0  0  0  0  0  0  0  0  0  0  0  0  0  0  0  0  0
%c M  cc GPS ccc cccc cccc cccc cccc ccccc ccccc ccccc ccccc
%c cc cc ccc ccc cccc cccc cccc cccc ccccc ccccc ccccc ccccc
%f  0.0000000  0.000000000  0.00000000000  0.000000000000000
%f  0.0000000  0.000000000  0.00000000000  0.000000000000000
%i    0    0    0    0      0      0      0      0         0
%i    0    0    0    0      0      0      0      0         0
/* IAC                                ULTRA-RAPID PREDICTION
/* S/V CLOCKS ARE ALIGNED TO GNSS TIME                      
/* G:C1WC2W R:C1PC2P E:C1XC5X C:C2IC6I J:C1CC2S             
/* PCV:IGS20_2317 OL/AL:FES2004  NONE     YN ORB:CoN CLK:CoN
*  2024 06 08  6 30  0.00000000
PG02 -11652.078460 -13371.246518 -19388.149088   -421.685938
PG03 -12731.617552 -23221.023845   2627.564592    403.276981
PG04  -5542.004364 -16122.842690  20349.258462    378.590476
PG05   3392.842004  23465.550595  11699.472444   -175.566117
PG06 -22970.178580   5774.427676  12191.203769    230.397673
PG07 -25352.752921  -6600.863753   6200.373106    -99.334683
PG08   2571.167022 -22293.666460 -13976.281541    219.312657
PG09 -15091.020638  -4337.928592  21345.850836    226.546968
PG10  14652.100029  -2835.584153 -21792.081893    -38.361201
PG11 -11448.880665  12672.905970  20349.965108   -680.789877
PG12   9989.759849  24624.412359    565.472542   -512.272282
PG13 -12102.945744  21874.141980  -8819.039017    656.407813
PG14 -16744.181304  -1164.561647 -20592.938788    420.256790
PG15    527.751961  22681.185426 -14153.663636    167.789101
PG16   1966.134179 -22253.926494  13679.425139   -270.180704
PG17 -19974.657400   9007.535981 -14707.229070    697.533173
PG18  25565.165764   5899.817855   4786.010455   -622.079207
PG19 -20144.284380  15250.981701  -7671.762861    493.387506
PG20  -3542.428623  18321.571679  19018.027732    374.066488
PG21  -6429.084036 -14586.770779 -20960.513783    116.791458
PG22 -13018.179346   7856.747380 -21380.394104    -24.478639
PG23  17828.491528   9638.786695 -17249.833728    245.119001
PG24   9400.114466  14956.225261 -20360.274389   -476.193959
PG25  16348.770119  19027.034452   8777.645215    497.027023
PG26  10708.458312 -12338.234413  20735.815157    140.459055
PG27  11891.293911 -23092.572813  -4613.603053    -27.419574
PG28  24124.998340  -5500.458352   9641.268873   -279.302106
PG29  12595.577043   8184.344362  21855.670202   -595.172718
PG30 -26211.294353   1309.726545  -4782.779050   -377.729398
PG31  16658.411552 -10794.957039  17618.217253   -227.512433
PG32  19367.892905 -11723.690949 -13512.606353   -616.831209
PR01  -8845.445914  22261.316607   8744.952856     87.764136
PR02  -1909.528870  24015.334308  -8430.791046    -23.206890
PR03   7180.964276  12445.316664 -21042.241230    101.667821
PR04  11796.240433  -5580.231821 -21884.239445    240.121127
PR05  10360.909597 -20561.143761 -10946.571843    132.754969
PR07  -7568.760878 -11587.909652  21458.283611     84.107542
PR08 -11918.962665   5926.419562  21827.438730     -4.726421
PR09  -9625.084508 -18371.750746  14931.348399    191.030935
PR11 -18697.951763  -6942.731149 -15900.039533     22.100062
PR12  -6321.440880   9145.921178 -22929.160506     41.056753
PR13   7310.222373  17652.819965 -16908.624656    -48.153738
PR14  19199.936540  16723.443455   1332.523737     26.551707
PR15  18110.939734   5668.789014  17062.526729     79.016547
PR16   6364.408208  -8925.335156  23047.257842     26.288128
PR17  16697.559711   4111.565760  18859.304472     93.927994
PR18  24559.761334  -4458.987254   5143.564363    145.973165
PR19  21425.127721  -9802.503838  -9788.270388   -279.542020
PR20   2452.299141 -11098.909771 -22828.919171   -114.112547
PR21 -16375.316427  -4346.639800 -19063.248458   -107.478799
PR22 -24831.024446   4371.450673  -3887.030968    105.102883
PR24  -1249.297193  11540.822705  22721.482054    -59.005577
PR25 -16764.493027  -4888.546867 -18583.197892    -37.264427
PR26 -11722.268857   4565.823157  22207.440836     -6.767370
*  2024 06 08  6 45  0.00000000
PG02  -9288.567546 -13535.061835 -20467.408119   -421.679689
PG03 -12642.223201 -23436.296840   -264.093592    403.293514
PG04  -4160.119280 -17912.135765  19133.599308    378.597810
PG05   2481.951888  22258.884342  14027.149324   -175.567302
PG06 -24193.365758   5551.575907   9662.588174    230.378907
PG07 -24553.000224  -6786.355596   8834.530321    -99.324087
PG08   3538.623473 -23425.304863 -11671.415006    219.329422
PG09 -13819.197997  -6465.361091  21660.584448    226.559966
PG10  15760.296304   -600.210743 -21220.968125    -38.368326
PG11 -13682.076026  12346.866160  19128.888954   -680.797427
PG12   9736.872190  24658.308537  -2289.059649   -512.275174
PG13 -12819.736160  22354.674044  -6101.229959    656.410189
PG14 -17656.084921  -3285.209711 -19598.569362    420.265010
PG15   -295.628101  23881.313259 -11914.086581    167.792882
PG16   2829.012172 -20710.317738  15783.040568   -270.171383
PG17 -19003.291976   7415.630586 -16679.821154    697.528531
PG18  24854.361044   6043.830538   7541.344408   -622.083822
PG19 -19691.156973  14310.301147 -10308.293182    493.392272
PG20  -4977.048394  16609.685974  20221.177204    374.066099
PG21  -3925.008689 -14691.991712 -21399.059395    116.789293
PG22 -13966.682206   5498.068540 -21489.990618    -24.483174
PG23  18608.588367  11327.280236 -15309.894744    245.127308
PG24   7115.435373  15129.145350 -21123.518926   -476.196484
PG25  16542.794936  19930.705383   6131.772335    497.027500
PG26  12045.438148 -10293.152546  21144.852064    140.453516
PG27  12308.108285 -23227.162202  -1761.101968    -27.420895
PG28  25074.081109  -5246.393530   7003.140345   -279.317443
PG29  11072.386790  10177.125617  21832.819851   -595.171196
PG30 -26599.409752    983.999541  -2030.611716   -377.723941
PG31  18581.124416 -10495.186331  15842.017280   -227.512297
PG32  18626.142784 -10171.654004 -15632.376832   -616.830350
PR01  -8501.852767  21044.932129  11625.565159     87.765124
PR02  -1924.931100  24887.739617  -5358.660415    -23.206963
PR03   6758.449637  14923.779609 -19523.490422    101.668518
PR04  11176.695329  -2888.804570 -22714.089475    240.122697
PR05   9891.509039 -19104.053855 -13678.144067    132.755658
PR07  -7127.670728 -14104.123531  20050.492858     84.108325
PR08 -11327.777417   3258.889653  22686.581179     -4.726682
PR09  -8148.112550 -17061.587466  17189.743658    191.032784
PR11 -20144.238960  -8039.228175 -13428.562135     22.098928
PR12  -8458.136231   7282.966244 -22907.130056     41.057145
PR13   5682.730997  16158.669182 -18910.220753    -48.154009
PR14  19248.398874  16613.220225  -1866.209598     26.551723
PR15  19647.241275   6887.475631  14754.296724     79.016167
PR16   8512.195071  -7070.511666  22994.465949     26.288546
PR17  14355.248888   4774.838116  20551.826680     93.931065
PR18  23712.658818  -4394.759493   8247.366883    145.974900
PR19  22352.201309 -10278.425085  -6755.768782   -279.543312
PR20   5103.906798 -11901.253592 -21966.672852   -114.113069
PR21 -14003.152649  -4996.714706 -20724.493895   -107.481652
PR22 -24142.180731   4324.247284  -7007.656737    105.099302
PR24  -3854.411222  12435.121000  21941.922207    -59.006943
PR25 -14435.235116  -5472.716607 -20298.169485    -37.292697
PR26 -11150.516371   1846.725256  22886.948587     -6.766652
EOF
